[{"OBJECT_NAME":"STARLINK-30489","OBJECT_ID":"2023-151L","EPOCH":"2026-03-09T01:55:19.776000","MEAN_MOTION":15.2671903,"ECCENTRICITY":0.00023706,"INCLINATION":43.0031,"RA_OF_ASC_NODE":339.3962,"ARG_OF_PERICENTER":252.2381,"MEAN_ANOMALY":107.8212,"EPHEMERIS_TYPE":0,"CLASSIFICATION_TYPE":"U","NORAD_CAT_ID":57974,"ELEMENT_SET_NO":999,"REV_AT_EPOCH":13567,"BSTAR":-4.4439226e-5,"MEAN_MOTION_DOT":-1.451e-5,"MEAN_MOTION_DDOT":0},{"OBJECT_NAME":"FLOCK 4G-36","OBJECT_ID":"2025-009BU","EPOCH":"2026-03-09T16:58:27.533568","MEAN_MOTION":15.27209548,"ECCENTRICITY":0.00034736,"INCLINATION":97.4053,"RA_OF_ASC_NODE":151.0513,"ARG_OF_PERICENTER":324.2456,"MEAN_ANOMALY":35.855,"EPHEMERIS_TYPE":0,"CLASSIFICATION_TYPE":"U","NORAD_CAT_ID":62675,"ELEMENT_SET_NO":999,"REV_AT_EPOCH":6370,"BSTAR":0.00051121743,"MEAN_MOTION_DOT":0.00013573,"MEAN_MOTION_DDOT":0}]
