STARLINK-30489          
1 57974U 23151L   26068.08009000 -.00001451  00000+0 -44439-4 0  9993
2 57974  43.0031 339.3962 0002370 252.2381 107.8212 15.26719030135672
FLOCK 4G-36             
1 62675U 25009BU  26068.70726311  .00013573  00000+0  51122-3 0  9993
2 62675  97.4053 151.0513 0003474 324.2456  35.8550 15.27209548 63701
